COSMOS 2058             
1 20465U 90010A   26086.85468120  .00005019  00000+0  29482-3 0  9995
2 20465  82.4685  29.5278 0007425 272.0691  87.9689 15.11481776944982
SL-14 R/B               
1 20466U 90010B   26086.82994854  .00000504  00000+0  58116-4 0  9992
2 20466  82.4996 250.3438 0018558 237.8556 122.0859 14.83585090931177
SL-14 R/B               
1 20511U 90018B   26086.79767179  .00000426  00000+0  50389-4 0  9992
2 20511  82.5236 206.1674 0017015  36.7813 323.4565 14.82162307925261
HST                     
1 20580U 90037B   26086.81958346  .00007586  00000+0  24793-3 0  9993
2 20580  28.4722 276.2991 0001637 339.0447  21.0081 15.29755431776098
SL-16 R/B               
1 20625U 90046B   26086.79430392  .00000266  00000+0  16203-3 0  9991
2 20625  70.9973 259.8872 0016311 275.8665  84.0598 14.15015563850956
COSMOS 2084             
1 20663U 90055A   26086.85251416  .00002651  00000+0  19574-3 0  9992
2 20663  62.7892 273.6250 0014210 195.6224 164.4440 15.05746979939057
SL-6 R/B(2)             
1 20666U 90055D   26086.66055258  .00001725  00000+0  13899-3 0  9995
2 20666  62.7831 192.7333 0027740 351.1624   8.8983 15.03678607940898
SL-8 R/B                
1 20775U 90078B   26086.84940142  .00011591  00000+0  34331-3 0  9992
2 20775  82.9021 234.9691 0358589 312.7687  44.3868 14.89605627812003
SL-8 R/B                
1 21088U 91006B   26086.72223865  .00000079  00000+0  64259-4 0  9997
2 21088  82.9447 156.6397 0021919 348.3180 129.3166 13.77496921766557
OKEAN-3                 
1 21397U 91039A   26086.89808763  .00002134  00000+0  14865-3 0  9991
2 21397  82.5165 319.2017 0012319 269.3728  90.6087 15.04908206867777
COSMOS 2151             
1 21422U 91042A   26086.82630837  .00002529  00000+0  20010-3 0  9999
2 21422  82.4944  66.1754 0012514   6.6145 353.5241 15.00180388865914
SL-14 R/B               
1 21423U 91042B   26086.78703348  .00000484  00000+0  58169-4 0  9998
2 21423  82.4955 203.2153 0017128 176.7908 183.3419 14.81847431855750
